{"type": "FeatureCollection", "features": [ {"type": "Feature", "properties": {"norad_id": 34833, "name": "IRIDIUM 33 DEB", "group": "iridium-33-debris", "lat": 35.34938590442314, "lon": -134.46252430442183, "alt_km": 709.3427528209031, "timestamp": "2025-12-19T10:50:01.586690+00:00", "meta": {"OBJECT_NAME": "IRIDIUM 33 DEB", "OBJECT_ID": "1997-051MH", "EPOCH": "2025-12-18T15:01:37.300224", "MEAN_MOTION": 14.52411468, "ECCENTRICITY": 0.00216445, "INCLINATION": 86.3932, "RA_OF_ASC_NODE": 48.4574, "ARG_OF_PERICENTER": 80.6966, "MEAN_ANOMALY": 71.1897, "EPHEMERIS_TYPE": 0, "CLASSIFICATION_TYPE": "U", "NORAD_CAT_ID": 34833, "ELEMENT_SET_NO": 999, "REV_AT_EPOCH": 87800, "BSTAR": 0.00052658219, "MEAN_MOTION_DOT": 2.172e-05, "MEAN_MOTION_DDOT": 0}, "tle": {"line1": "1 34833U 97051MH  25352.62612616  .00002172  00000+0  52658-3 0  9990", "line2": "2 34833  86.3932  48.4574 0021644  80.6966  71.1897 14.52411468878000"}}, "geometry": {"type": "Point", "coordinates": [-134.46252430442183, 35.34938590442314]}}, {"type": "Feature", "properties": {"norad_id": 34870, "name": "IRIDIUM 33 DEB", "group": "iridium-33-debris", "lat": -22.31101642047173, "lon": -50.50769649359195, "alt_km": 657.6281688068257, "timestamp": "2025-12-19T10:50:01.586700+00:00", "meta": {"OBJECT_NAME": "IRIDIUM 33 DEB", "OBJECT_ID": "1997-051MQ", "EPOCH": "2025-12-17T15:48:12.189024", "MEAN_MOTION": 14.76525212, "ECCENTRICITY": 0.00169592, "INCLINATION": 86.3102, "RA_OF_ASC_NODE": 311.8309, "ARG_OF_PERICENTER": 164.6796, "MEAN_ANOMALY": 8.9227, "EPHEMERIS_TYPE": 0, "CLASSIFICATION_TYPE": "U", "NORAD_CAT_ID": 34870, "ELEMENT_SET_NO": 999, "REV_AT_EPOCH": 88983, "BSTAR": 0.0011120343, "MEAN_MOTION_DOT": 7.793e-05, "MEAN_MOTION_DDOT": 0}, "tle": {"line1": "1 34870U 97051MQ  25351.65847441  .00007793  00000+0  11120-2 0  9991", "line2": "2 34870  86.3102 311.8309 0016959 164.6796   8.9227 14.76525212889837"}}, "geometry": {"type": "Point", "coordinates": [-50.50769649359195, -22.31101642047173]}}, {"type": "Feature", "properties": {"norad_id": 34896, "name": "IRIDIUM 33 DEB", "group": "iridium-33-debris", "lat": -66.3942695182598, "lon": -44.77428722625145, "alt_km": 684.0237492899287, "timestamp": "2025-12-19T10:50:01.586711+00:00", "meta": {"OBJECT_NAME": "IRIDIUM 33 DEB", "OBJECT_ID": "1997-051MY", "EPOCH": "2025-12-17T17:20:43.717344", "MEAN_MOTION": 14.6632638, "ECCENTRICITY": 0.00248916, "INCLINATION": 86.3286, "RA_OF_ASC_NODE": 324.4498, "ARG_OF_PERICENTER": 196.3048, "MEAN_ANOMALY": 337.3904, "EPHEMERIS_TYPE": 0, "CLASSIFICATION_TYPE": "U", "NORAD_CAT_ID": 34896, "ELEMENT_SET_NO": 999, "REV_AT_EPOCH": 87692, "BSTAR": 0.00069874419, "MEAN_MOTION_DOT": 3.895e-05, "MEAN_MOTION_DDOT": 0}, "tle": {"line1": "1 34896U 97051MY  25351.72272821  .00003895  00000+0  69874-3 0  9990", "line2": "2 34896  86.3286 324.4498 0024891 196.3048 337.3904 14.66326380876924"}}, "geometry": {"type": "Point", "coordinates": [-44.77428722625145, -66.3942695182598]}}, {"type": "Feature", "properties": {"norad_id": 34926, "name": "IRIDIUM 33 DEB", "group": "iridium-33-debris", "lat": 82.44186189811897, "lon": 154.50214831653656, "alt_km": 755.4422227562372, "timestamp": "2025-12-19T10:50:01.586722+00:00", "meta": {"OBJECT_NAME": "IRIDIUM 33 DEB", "OBJECT_ID": "1997-051NF", "EPOCH": "2025-12-18T12:00:33.859296", "MEAN_MOTION": 14.54673553, "ECCENTRICITY": 0.007466, "INCLINATION": 86.1318, "RA_OF_ASC_NODE": 5.6024, "ARG_OF_PERICENTER": 272.8788, "MEAN_ANOMALY": 246.5366, "EPHEMERIS_TYPE": 0, "CLASSIFICATION_TYPE": "U", "NORAD_CAT_ID": 34926, "ELEMENT_SET_NO": 999, "REV_AT_EPOCH": 86540, "BSTAR": 0.0047273408, "MEAN_MOTION_DOT": 0.00021041, "MEAN_MOTION_DDOT": 0}, "tle": {"line1": "1 34926U 97051NF  25352.50039189  .00021041  00000+0  47273-2 0  9990", "line2": "2 34926  86.1318   5.6024 0074660 272.8788 246.5366 14.54673553865403"}}, "geometry": {"type": "Point", "coordinates": [154.50214831653656, 82.44186189811897]}}, {"type": "Feature", "properties": {"norad_id": 34985, "name": "IRIDIUM 33 DEB", "group": "iridium-33-debris", "lat": -80.37461963333816, "lon": 32.032903644437404, "alt_km": 756.9826691202516, "timestamp": "2025-12-19T10:50:01.586732+00:00", "meta": {"OBJECT_NAME": "IRIDIUM 33 DEB", "OBJECT_ID": "1997-051NR", "EPOCH": "2025-12-18T03:42:15.992064", "MEAN_MOTION": 14.42032375, "ECCENTRICITY": 0.00213063, "INCLINATION": 86.3697, "RA_OF_ASC_NODE": 54.5701, "ARG_OF_PERICENTER": 201.5738, "MEAN_ANOMALY": 187.9746, "EPHEMERIS_TYPE": 0, "CLASSIFICATION_TYPE": "U", "NORAD_CAT_ID": 34985, "ELEMENT_SET_NO": 999, "REV_AT_EPOCH": 87253, "BSTAR": 0.00049263148, "MEAN_MOTION_DOT": 1.64e-05, "MEAN_MOTION_DDOT": 0}, "tle": {"line1": "1 34985U 97051NR  25352.15435176  .00001640  00000+0  49263-3 0  9997", "line2": "2 34985  86.3697  54.5701 0021306 201.5738 187.9746 14.42032375872538"}}, "geometry": {"type": "Point", "coordinates": [32.032903644437404, -80.37461963333816]}}, {"type": "Feature", "properties": {"norad_id": 35051, "name": "IRIDIUM 33 DEB", "group": "iridium-33-debris", "lat": -13.929295104902984, "lon": 5.023155134836258, "alt_km": 737.5377844704144, "timestamp": "2025-12-19T10:50:01.586743+00:00", "meta": {"OBJECT_NAME": "IRIDIUM 33 DEB", "OBJECT_ID": "1997-051NX", "EPOCH": "2025-12-18T08:21:17.640576", "MEAN_MOTION": 14.47622573, "ECCENTRICITY": 0.00105215, "INCLINATION": 86.324, "RA_OF_ASC_NODE": 6.4175, "ARG_OF_PERICENTER": 75.5745, "MEAN_ANOMALY": 284.6625, "EPHEMERIS_TYPE": 0, "CLASSIFICATION_TYPE": "U", "NORAD_CAT_ID": 35051, "ELEMENT_SET_NO": 999, "REV_AT_EPOCH": 87077, "BSTAR": 0.00050498814, "MEAN_MOTION_DOT": 1.881e-05, "MEAN_MOTION_DDOT": 0}, "tle": {"line1": "1 35051U 97051NX  25352.34812084  .00001881  00000+0  50499-3 0  9990", "line2": "2 35051  86.3240   6.4175 0010521  75.5745 284.6625 14.47622573870777"}}, "geometry": {"type": "Point", "coordinates": [5.023155134836258, -13.929295104902984]}}, {"type": "Feature", "properties": {"norad_id": 35052, "name": "IRIDIUM 33 DEB", "group": "iridium-33-debris", "lat": -83.48688977051444, "lon": -16.60261261500425, "alt_km": 779.2695410898468, "timestamp": "2025-12-19T10:50:01.586753+00:00", "meta": {"OBJECT_NAME": "IRIDIUM 33 DEB", "OBJECT_ID": "1997-051NY", "EPOCH": "2025-12-17T12:28:55.141824", "MEAN_MOTION": 14.38497693, "ECCENTRICITY": 0.00135167, "INCLINATION": 86.3305, "RA_OF_ASC_NODE": 18.4267, "ARG_OF_PERICENTER": 71.7027, "MEAN_ANOMALY": 288.5641, "EPHEMERIS_TYPE": 0, "CLASSIFICATION_TYPE": "U", "NORAD_CAT_ID": 35052, "ELEMENT_SET_NO": 999, "REV_AT_EPOCH": 87344, "BSTAR": 0.00015333299, "MEAN_MOTION_DOT": 4.89e-06, "MEAN_MOTION_DDOT": 0}, "tle": {"line1": "1 35052U 97051NY  25351.52008266  .00000489  00000+0  15333-3 0  9990", "line2": "2 35052  86.3305  18.4267 0013516  71.7027 288.5641 14.38497693873444"}}, "geometry": {"type": "Point", "coordinates": [-16.60261261500425, -83.48688977051444]}}, {"type": "Feature", "properties": {"norad_id": 35080, "name": "IRIDIUM 33 DEB", "group": "iridium-33-debris", "lat": 11.738763883217047, "lon": -131.6217591529327, "alt_km": 568.8086956721136, "timestamp": "2025-12-19T10:50:01.586763+00:00", "meta": {"OBJECT_NAME": "IRIDIUM 33 DEB", "OBJECT_ID": "1997-051PF", "EPOCH": "2025-12-18T03:23:24.146880", "MEAN_MOTION": 14.86677216, "ECCENTRICITY": 0.00593996, "INCLINATION": 86.2085, "RA_OF_ASC_NODE": 49.7944, "ARG_OF_PERICENTER": 161.1545, "MEAN_ANOMALY": 199.1899, "EPHEMERIS_TYPE": 0, "CLASSIFICATION_TYPE": "U", "NORAD_CAT_ID": 35080, "ELEMENT_SET_NO": 999, "REV_AT_EPOCH": 69768, "BSTAR": 0.004837816, "MEAN_MOTION_DOT": 0.0004462, "MEAN_MOTION_DDOT": 0}, "tle": {"line1": "1 35080U 97051PF  25352.14125170  .00044620  00000+0  48378-2 0  9993", "line2": "2 35080  86.2085  49.7944 0059399 161.1545 199.1899 14.86677216697682"}}, "geometry": {"type": "Point", "coordinates": [-131.6217591529327, 11.738763883217047]}}, {"type": "Feature", "properties": {"norad_id": 35297, "name": "IRIDIUM 33 DEB", "group": "iridium-33-debris", "lat": -16.742803863507046, "lon": 58.80619625694124, "alt_km": 755.577900539748, "timestamp": "2025-12-19T10:50:01.586776+00:00", "meta": {"OBJECT_NAME": "IRIDIUM 33 DEB", "OBJECT_ID": "1997-051PM", "EPOCH": "2025-12-16T11:27:21.167712", "MEAN_MOTION": 14.45174956, "ECCENTRICITY": 0.00178431, "INCLINATION": 86.3863, "RA_OF_ASC_NODE": 61.1645, "ARG_OF_PERICENTER": 129.6186, "MEAN_ANOMALY": 230.6595, "EPHEMERIS_TYPE": 0, "CLASSIFICATION_TYPE": "U", "NORAD_CAT_ID": 35297, "ELEMENT_SET_NO": 999, "REV_AT_EPOCH": 70480, "BSTAR": 0.00045011402, "MEAN_MOTION_DOT": 1.598e-05, "MEAN_MOTION_DDOT": 0}, "tle": {"line1": "1 35297U 97051PM  25350.47732833  .00001598  00000+0  45011-3 0  9996", "line2": "2 35297  86.3863  61.1645 0017843 129.6186 230.6595 14.45174956704806"}}, "geometry": {"type": "Point", "coordinates": [58.80619625694124, -16.742803863507046]}}, {"type": "Feature", "properties": {"norad_id": 35299, "name": "IRIDIUM 33 DEB", "group": "iridium-33-debris", "lat": 6.473058831083299, "lon": -150.15715090370676, "alt_km": 759.3205802533248, "timestamp": "2025-12-19T10:50:01.586795+00:00", "meta": {"OBJECT_NAME": "IRIDIUM 33 DEB", "OBJECT_ID": "1997-051PP", "EPOCH": "2025-12-18T02:30:13.094208", "MEAN_MOTION": 14.40886995, "ECCENTRICITY": 0.00588566, "INCLINATION": 86.2881, "RA_OF_ASC_NODE": 30.8512, "ARG_OF_PERICENTER": 85.3219, "MEAN_ANOMALY": 304.2144, "EPHEMERIS_TYPE": 0, "CLASSIFICATION_TYPE": "U", "NORAD_CAT_ID": 35299, "ELEMENT_SET_NO": 999, "REV_AT_EPOCH": 86408, "BSTAR": 0.00059608635, "MEAN_MOTION_DOT": 1.971e-05, "MEAN_MOTION_DDOT": 0}, "tle": {"line1": "1 35299U 97051PP  25352.10431822  .00001971  00000+0  59609-3 0  9997", "line2": "2 35299  86.2881  30.8512 0058856  85.3219 304.2144 14.40886995864080"}}, "geometry": {"type": "Point", "coordinates": [-150.15715090370676, 6.473058831083299]}}]}